ENTRYSAT                
1 44429U 98067QP  20062.48840414  .00010651  00000-0  15787-3 0  9990
2 44429  51.6394 150.0808 0002553 301.6150  58.4592 15.55830507 37851
VCC C                   
1 44430U 98067QQ  20062.52385096  .00012224  00000-0  17608-3 0  9999
2 44430  51.6401 149.5750 0002824 314.7077  45.3685 15.56451781 36698
VCC B                   
1 44431U 98067QR  20062.46633157  .00008938  00000-0  13642-3 0  9998
2 44431  51.6400 150.6882 0002945 307.4941  52.5782 15.55260255 37782
ATL-1                   
1 44830U 19084G   20062.68866535  .00033181  00000-0  27766-3 0  9995
2 44830  96.9927 291.4585 0034067 286.4189  73.3330 15.69135534 13662
SMOG-P                  
1 44832U 19084J   20062.67548935  .00036661  00000-0  30187-3 0  9994
2 44832  96.9934 291.4822 0033433 285.2876  74.4692 15.69535525 13669
DUCHIFAT-3              
1 44854U 19089C   20062.85212507  .00000331  00000-0  33222-4 0  9995
2 44854  36.9699   8.3069 0009319 281.6510  78.3237 14.98983418 12299
